start=new Date('2023-03-19T00:00:00.000Z').valueOf();
sats=[{"TIME_SYSTEM":"UTC","PERIAPSIS":"538.849","MEAN_MOTION_DOT":"0.00000982","OBJECT_NAME":"STARLINK-3748","APOAPSIS":"540.594","TLE_LINE2":"2 52267  53.2146 307.9274 0001261  78.6705 281.4429 15.08847733 50292","REV_AT_EPOCH":"5029","NORAD_CAT_ID":"52267","LAUNCH_DATE":"2022-04-21","RCS_SIZE":"LARGE","PERIOD":"95.437","REF_FRAME":"TEME","ELEMENT_SET_NO":"999","EPHEMERIS_TYPE":"0","BSTAR":"0.00007977800000","OBJECT_ID":"2022-041G","SITE":"AFETR","OBJECT_TYPE":"PAYLOAD","ECCENTRICITY":"0.00012610","TLE_LINE1":"1 52267U 22041G   23077.89635596  .00000982  00000-0  79778-4 0  9992","MEAN_ANOMALY":"281.4429","GP_ID":"228404096","COUNTRY_CODE":"US","CENTER_NAME":"EARTH","SEMIMAJOR_AXIS":"6917.857","MEAN_ELEMENT_THEORY":"SGP4","CLASSIFICATION_TYPE":"U","FILE":"3864479","EPOCH":"2023-03-18T21:30:45.154944","RA_OF_ASC_NODE":"307.9274","ARG_OF_PERICENTER":"78.6705","MEAN_MOTION":"15.08847733","MEAN_MOTION_DDOT":"0.0000000000000","DECAY_DATE":null,"INCLINATION":"53.2146"},{"PERIOD":"95.437","REF_FRAME":"TEME","ELEMENT_SET_NO":"999","EPHEMERIS_TYPE":"0","BSTAR":"0.00126440000000","LAUNCH_DATE":"2022-04-21","RCS_SIZE":"LARGE","TLE_LINE2":"2 52268  53.2153 307.9810 0001131  68.6883 291.4230 15.08850141 50297","NORAD_CAT_ID":"52268","REV_AT_EPOCH":"5029","TIME_SYSTEM":"UTC","PERIAPSIS":"538.932","MEAN_MOTION_DOT":"0.00019898","APOAPSIS":"540.497","OBJECT_NAME":"STARLINK-3746","MEAN_MOTION":"15.08850141","DECAY_DATE":null,"MEAN_MOTION_DDOT":"0.0000000000000","INCLINATION":"53.2153","CLASSIFICATION_TYPE":"U","EPOCH":"2023-03-18T21:16:14.220480","FILE":"3864479","RA_OF_ASC_NODE":"307.9810","ARG_OF_PERICENTER":"68.6883","TLE_LINE1":"1 52268U 22041H   23077.88627570  .00019898  00000-0  12644-2 0  9998","MEAN_ANOMALY":"291.4230","GP_ID":"228403845","CENTER_NAME":"EARTH","COUNTRY_CODE":"US","SEMIMAJOR_AXIS":"6917.849","MEAN_ELEMENT_THEORY":"SGP4","OBJECT_ID":"2022-041H","SITE":"AFETR","OBJECT_TYPE":"PAYLOAD","ECCENTRICITY":"0.00011310"},{"TLE_LINE2":"2 52269  53.2143 307.9383 0001737  74.9413 285.1771 15.08848508 50297","NORAD_CAT_ID":"52269","REV_AT_EPOCH":"5029","TIME_SYSTEM":"UTC","PERIAPSIS":"538.518","APOAPSIS":"540.921","OBJECT_NAME":"STARLINK-3791","MEAN_MOTION_DOT":"0.00008269","REF_FRAME":"TEME","PERIOD":"95.437","EPHEMERIS_TYPE":"0","BSTAR":"0.00053692000000","ELEMENT_SET_NO":"999","LAUNCH_DATE":"2022-04-21","RCS_SIZE":"LARGE","MEAN_ANOMALY":"285.1771","TLE_LINE1":"1 52269U 22041J   23077.89267818  .00008269  00000-0  53692-3 0  9994","SEMIMAJOR_AXIS":"6917.854","CENTER_NAME":"EARTH","GP_ID":"228404588","COUNTRY_CODE":"US","MEAN_ELEMENT_THEORY":"SGP4","OBJECT_ID":"2022-041J","OBJECT_TYPE":"PAYLOAD","SITE":"AFETR","ECCENTRICITY":"0.00017370","MEAN_MOTION":"15.08848508","DECAY_DATE":null,"MEAN_MOTION_DDOT":"0.0000000000000","INCLINATION":"53.2143","CLASSIFICATION_TYPE":"U","FILE":"3864479","EPOCH":"2023-03-18T21:25:27.394752","RA_OF_ASC_NODE":"307.9383","ARG_OF_PERICENTER":"74.9413"},{"ARG_OF_PERICENTER":"95.6752","RA_OF_ASC_NODE":"308.0054","EPOCH":"2023-03-18T21:14:51.655776","FILE":"3864479","CLASSIFICATION_TYPE":"U","INCLINATION":"53.2162","DECAY_DATE":null,"MEAN_MOTION_DDOT":"0.0000000000000","MEAN_MOTION":"15.08853029","ECCENTRICITY":"0.00013260","OBJECT_TYPE":"PAYLOAD","SITE":"AFETR","OBJECT_ID":"2022-041K","MEAN_ELEMENT_THEORY":"SGP4","SEMIMAJOR_AXIS":"6917.841","CENTER_NAME":"EARTH","GP_ID":"228404843","COUNTRY_CODE":"US","MEAN_ANOMALY":"264.4391","TLE_LINE1":"1 52270U 22041K   23077.88532009  .00004388  00000-0  29351-3 0  9995","RCS_SIZE":"LARGE","LAUNCH_DATE":"2022-04-21","BSTAR":"0.00029351000000","EPHEMERIS_TYPE":"0","ELEMENT_SET_NO":"999","REF_FRAME":"TEME","PERIOD":"95.437","APOAPSIS":"540.623","OBJECT_NAME":"STARLINK-3804","MEAN_MOTION_DOT":"0.00004388","PERIAPSIS":"538.788","TIME_SYSTEM":"UTC","REV_AT_EPOCH":"5029","NORAD_CAT_ID":"52270","TLE_LINE2":"2 52270  53.2162 308.0054 0001326  95.6752 264.4391 15.08853029 50299"},{"NORAD_CAT_ID":"52271","REV_AT_EPOCH":"5029","TLE_LINE2":"2 52271  53.2155 307.9516 0001236  82.1430 277.9702 15.08844416 50292","PERIAPSIS":"538.877","TIME_SYSTEM":"UTC","MEAN_MOTION_DOT":"0.00002286","OBJECT_NAME":"STARLINK-3788","APOAPSIS":"540.587","ELEMENT_SET_NO":"999","EPHEMERIS_TYPE":"0","BSTAR":"0.00016165000000","PERIOD":"95.437","REF_FRAME":"TEME","LAUNCH_DATE":"2022-04-21","RCS_SIZE":"LARGE","COUNTRY_CODE":"US","GP_ID":"228403597","CENTER_NAME":"EARTH","SEMIMAJOR_AXIS":"6917.867","TLE_LINE1":"1 52271U 22041L   23077.88899879  .00002286  00000-0  16165-3 0  9991","MEAN_ANOMALY":"277.9702","MEAN_ELEMENT_THEORY":"SGP4","SITE":"AFETR","OBJECT_TYPE":"PAYLOAD","OBJECT_ID":"2022-041L","ECCENTRICITY":"0.00012360","MEAN_MOTION":"15.08844416","INCLINATION":"53.2155","DECAY_DATE":null,"MEAN_MOTION_DDOT":"0.0000000000000","FILE":"3864479","EPOCH":"2023-03-18T21:20:09.495456","CLASSIFICATION_TYPE":"U","ARG_OF_PERICENTER":"82.1430","RA_OF_ASC_NODE":"307.9516"},{"MEAN_ELEMENT_THEORY":"SGP4","MEAN_ANOMALY":"267.3358","TLE_LINE1":"1 52272U 22041M   23077.87795586  .00004807  00000-0  31976-3 0  9999","GP_ID":"228404345","CENTER_NAME":"EARTH","COUNTRY_CODE":"US","SEMIMAJOR_AXIS":"6917.840","ECCENTRICITY":"0.00014240","OBJECT_ID":"2022-041M","SITE":"AFETR","OBJECT_TYPE":"PAYLOAD","DECAY_DATE":null,"MEAN_MOTION_DDOT":"0.0000000000000","INCLINATION":"53.2154","MEAN_MOTION":"15.08853262","RA_OF_ASC_NODE":"307.9949","ARG_OF_PERICENTER":"92.7797","CLASSIFICATION_TYPE":"U","EPOCH":"2023-03-18T21:04:15.386304","FILE":"3864479","TLE_LINE2":"2 52272  53.2154 307.9949 0001424  92.7797 267.3358 15.08853262 50293","REV_AT_EPOCH":"5029","NORAD_CAT_ID":"52272","MEAN_MOTION_DOT":"0.00004807","OBJECT_NAME":"STARLINK-3781","APOAPSIS":"540.690","TIME_SYSTEM":"UTC","PERIAPSIS":"538.720","PERIOD":"95.437","REF_FRAME":"TEME","ELEMENT_SET_NO":"999","EPHEMERIS_TYPE":"0","BSTAR":"0.00031976000000","RCS_SIZE":"LARGE","LAUNCH_DATE":"2022-04-21"},{"ARG_OF_PERICENTER":"98.6257","RA_OF_ASC_NODE":"297.4834","EPOCH":"2023-03-18T21:58:30.692928","FILE":"3864479","CLASSIFICATION_TYPE":"U","INCLINATION":"53.2145","DECAY_DATE":null,"MEAN_MOTION_DDOT":"0.0000000000000","MEAN_MOTION":"15.08850788","ECCENTRICITY":"0.00010270","OBJECT_TYPE":"PAYLOAD","SITE":"AFETR","OBJECT_ID":"2022-041N","MEAN_ELEMENT_THEORY":"SGP4","SEMIMAJOR_AXIS":"6917.847","COUNTRY_CODE":"US","GP_ID":"228405089","CENTER_NAME":"EARTH","TLE_LINE1":"1 52273U 22041N   23077.91563302  .00003755  00000-0  25382-3 0  9999","MEAN_ANOMALY":"261.4852","RCS_SIZE":"LARGE","LAUNCH_DATE":"2022-04-21","EPHEMERIS_TYPE":"0","BSTAR":"0.00025382000000","ELEMENT_SET_NO":"999","REF_FRAME":"TEME","PERIOD":"95.437","APOAPSIS":"540.423","OBJECT_NAME":"STARLINK-3782","MEAN_MOTION_DOT":"0.00003755","PERIAPSIS":"539.002","TIME_SYSTEM":"UTC","NORAD_CAT_ID":"52273","REV_AT_EPOCH":"5044","TLE_LINE2":"2 52273  53.2145 297.4834 0001027  98.6257 261.4852 15.08850788 50446"},{"MEAN_ELEMENT_THEORY":"SGP4","SEMIMAJOR_AXIS":"6917.686","GP_ID":"228405344","COUNTRY_CODE":"US","CENTER_NAME":"EARTH","MEAN_ANOMALY":"287.2001","TLE_LINE1":"1 52274U 22041P   23077.94050202  .00034352  00000-0  21622-2 0  9992","ECCENTRICITY":"0.00015570","OBJECT_TYPE":"PAYLOAD","SITE":"AFETR","OBJECT_ID":"2022-041P","INCLINATION":"53.2147","MEAN_MOTION_DDOT":"0.0000000000000","DECAY_DATE":null,"MEAN_MOTION":"15.08903624","ARG_OF_PERICENTER":"72.9162","RA_OF_ASC_NODE":"307.7326","FILE":"3864479","EPOCH":"2023-03-18T22:34:19.374528","CLASSIFICATION_TYPE":"U","REV_AT_EPOCH":"5030","NORAD_CAT_ID":"52274","TLE_LINE2":"2 52274  53.2147 307.7326 0001557  72.9162 287.2001 15.08903624 50303","OBJECT_NAME":"STARLINK-3790","APOAPSIS":"540.628","MEAN_MOTION_DOT":"0.00034352","PERIAPSIS":"538.474","TIME_SYSTEM":"UTC","BSTAR":"0.00216220000000","EPHEMERIS_TYPE":"0","ELEMENT_SET_NO":"999","REF_FRAME":"TEME","PERIOD":"95.434","RCS_SIZE":"LARGE","LAUNCH_DATE":"2022-04-21"},{"ELEMENT_SET_NO":"999","BSTAR":"0.00011969000000","EPHEMERIS_TYPE":"0","PERIOD":"95.438","REF_FRAME":"TEME","LAUNCH_DATE":"2022-04-21","RCS_SIZE":"LARGE","REV_AT_EPOCH":"5029","NORAD_CAT_ID":"52275","TLE_LINE2":"2 52275  53.2145 307.9941 0001318  88.2811 271.8332 15.08840807 50290","PERIAPSIS":"538.831","TIME_SYSTEM":"UTC","MEAN_MOTION_DOT":"0.00001618","OBJECT_NAME":"STARLINK-3784","APOAPSIS":"540.655","MEAN_MOTION":"15.08840807","INCLINATION":"53.2145","DECAY_DATE":null,"MEAN_MOTION_DDOT":"0.0000000000000","EPOCH":"2023-03-18T21:09:33.519744","FILE":"3864479","CLASSIFICATION_TYPE":"U","ARG_OF_PERICENTER":"88.2811","RA_OF_ASC_NODE":"307.9941","GP_ID":"228404097","COUNTRY_CODE":"US","CENTER_NAME":"EARTH","SEMIMAJOR_AXIS":"6917.878","MEAN_ANOMALY":"271.8332","TLE_LINE1":"1 52275U 22041Q   23077.88163796  .00001618  00000-0  11969-3 0  9992","MEAN_ELEMENT_THEORY":"SGP4","SITE":"AFETR","OBJECT_TYPE":"PAYLOAD","OBJECT_ID":"2022-041Q","ECCENTRICITY":"0.00013180"},{"ELEMENT_SET_NO":"999","BSTAR":"0.00013918000000","EPHEMERIS_TYPE":"0","PERIOD":"95.438","REF_FRAME":"TEME","RCS_SIZE":"LARGE","LAUNCH_DATE":"2022-04-21","NORAD_CAT_ID":"52276","REV_AT_EPOCH":"5030","TLE_LINE2":"2 52276  53.2172 307.7463 0001488 113.9943 246.1205 15.08840248 50303","MEAN_MOTION_DOT":"0.00001928","OBJECT_NAME":"STARLINK-3778","APOAPSIS":"540.774","PERIAPSIS":"538.715","TIME_SYSTEM":"UTC","INCLINATION":"53.2172","MEAN_MOTION_DDOT":"0.0000000000000","DECAY_DATE":null,"MEAN_MOTION":"15.08840248","ARG_OF_PERICENTER":"113.9943","RA_OF_ASC_NODE":"307.7463","FILE":"3864479","EPOCH":"2023-03-18T22:29:02.795424","CLASSIFICATION_TYPE":"U","MEAN_ELEMENT_THEORY":"SGP4","GP_ID":"228403846","COUNTRY_CODE":"US","CENTER_NAME":"EARTH","SEMIMAJOR_AXIS":"6917.880","TLE_LINE1":"1 52276U 22041R   23077.93683791  .00001928  00000-0  13918-3 0  9991","MEAN_ANOMALY":"246.1205","ECCENTRICITY":"0.00014880","SITE":"AFETR","OBJECT_TYPE":"PAYLOAD","OBJECT_ID":"2022-041R"}];
